RESOURCESAT-2           
1 37387U 11015A   26074.27280889 -.00000254  00000+0 -95901-4 0  9999
2 37387  98.7709 142.3248 0006467 124.9678 235.2107 14.21508155772833
YOUTHSAT                
1 37388U 11015B   26074.16790181  .00000265  00000+0  12925-3 0  9993
2 37388  98.3601  52.5062 0013271 257.3771 112.7838 14.25586075774241
APRIZESAT 6             
1 37793U 11044F   26074.25224956  .00000993  00000+0  14735-3 0  9996
2 37793  98.2415 342.8204 0043948  28.0645  89.0263 14.76765607783281
JUGNU                   
1 37839U 11058B   26073.57141022  .00000513  00000+0  12835-3 0  9995
2 37839  19.9595 163.2385 0018726 111.0167 277.7923 14.13743579745624
SRMSAT                  
1 37841U 11058D   26074.22114294  .00000448  00000+0  99437-4 0  9993
2 37841  19.9715 268.2252 0011718 250.1880 266.5988 14.11549976744529
SUOMI NPP               
1 37849U 11061A   26074.24104616  .00000102  00000+0  69182-4 0  9995
2 37849  98.7876  15.7999 0000712 194.1780 165.9376 14.19545341745110
YAOGAN-12               
1 37875U 11066B   26074.29940743  .00005672  00000+0  22658-3 0  9996
2 37875  97.1282 117.3042 0009663 189.0213 171.0854 15.25465777797724
ZIYUAN 3-01 (ZY 3-01)   
1 38046U 12001A   26074.04056086  .01033273  66659-3  99324-3 0  9997
2 38046  97.1592 149.4422 0006098 248.9409 111.1224 16.11873672789560
BEIDOU-2 M4             
1 38251U 12018B   26072.00546832 -.00000031  00000+0  00000+0 0  9999
2 38251  55.7402 307.3399 0012191 287.4004  72.5220  1.86229915 94157
ARIRANG-3 (KOMPSAT-3)   
1 38338U 12025B   26074.27998110  .00000622  00000+0  13305-3 0  9995
2 38338  98.1072  33.4208 0006562  56.7444 303.4386 14.62110990737628
HORYU-2                 
1 38340U 12025D   26074.27064244  .00004225  00000+0  43930-3 0  9990
2 38340  98.2011 203.4893 0009177 126.9752 233.2307 14.90426149734730
CSSWE                   
1 38761U 12048D   26074.25466006  .00030619  00000+0  72183-3 0  9990
2 38761  64.6623  50.5190 0066522 201.0950 158.7440 15.39461397101911
CP5                     
1 38763U 12048F   26074.25530756  .00016164  00000+0  56515-3 0  9996
2 38763  64.6449 102.4588 0096456 204.5490 155.1032 15.25323064102421
METOP-B                 
1 38771U 12049A   26074.28744697  .00000119  00000+0  74205-4 0  9990
2 38771  98.6630 127.6100 0001344 236.1880 123.9170 14.21446634699920
SJ-9A                   
1 38860U 12056A   26074.25770726  .00001350  00000+0  16260-3 0  9990
2 38860  97.6619  49.6730 0024909 203.4722 156.5359 14.85243599685641
COSMOS 2484 (RODNIK-S 6)
1 39059U 13001C   26074.29022988  .00000129  00000+0  86131-3 0  9993
2 39059  82.4984 280.2896 0025639 237.9178 121.9412 12.42936614596895
SARAL                   
1 39086U 13009A   26074.25751303  .00000120  00000+0  60027-4 0  9995
2 39086  98.5559 262.0043 0001796 165.4945 194.6291 14.32830566682155
