[{"OBJECT_NAME":"RESOURCESAT-2","OBJECT_ID":"2011-015A","EPOCH":"2026-03-15T06:32:50.688096","MEAN_MOTION":14.21508155,"ECCENTRICITY":0.00064672,"INCLINATION":98.7709,"RA_OF_ASC_NODE":142.3248,"ARG_OF_PERICENTER":124.9678,"MEAN_ANOMALY":235.2107,"EPHEMERIS_TYPE":0,"CLASSIFICATION_TYPE":"U","NORAD_CAT_ID":37387,"ELEMENT_SET_NO":999,"REV_AT_EPOCH":77283,"BSTAR":-9.5900554e-5,"MEAN_MOTION_DOT":-2.54e-6,"MEAN_MOTION_DDOT":0},{"OBJECT_NAME":"YOUTHSAT","OBJECT_ID":"2011-015B","EPOCH":"2026-03-15T04:01:46.716384","MEAN_MOTION":14.25586075,"ECCENTRICITY":0.00132715,"INCLINATION":98.3601,"RA_OF_ASC_NODE":52.5062,"ARG_OF_PERICENTER":257.3771,"MEAN_ANOMALY":112.7838,"EPHEMERIS_TYPE":0,"CLASSIFICATION_TYPE":"U","NORAD_CAT_ID":37388,"ELEMENT_SET_NO":999,"REV_AT_EPOCH":77424,"BSTAR":0.00012925263,"MEAN_MOTION_DOT":2.65e-6,"MEAN_MOTION_DDOT":0},{"OBJECT_NAME":"APRIZESAT 6","OBJECT_ID":"2011-044F","EPOCH":"2026-03-15T06:03:14.361984","MEAN_MOTION":14.76765607,"ECCENTRICITY":0.00439487,"INCLINATION":98.2415,"RA_OF_ASC_NODE":342.8204,"ARG_OF_PERICENTER":28.0645,"MEAN_ANOMALY":89.0263,"EPHEMERIS_TYPE":0,"CLASSIFICATION_TYPE":"U","NORAD_CAT_ID":37793,"ELEMENT_SET_NO":999,"REV_AT_EPOCH":78328,"BSTAR":0.00014735389,"MEAN_MOTION_DOT":9.93e-6,"MEAN_MOTION_DDOT":0},{"OBJECT_NAME":"JUGNU","OBJECT_ID":"2011-058B","EPOCH":"2026-03-14T13:42:49.843008","MEAN_MOTION":14.13743579,"ECCENTRICITY":0.00187262,"INCLINATION":19.9595,"RA_OF_ASC_NODE":163.2385,"ARG_OF_PERICENTER":111.0167,"MEAN_ANOMALY":277.7923,"EPHEMERIS_TYPE":0,"CLASSIFICATION_TYPE":"U","NORAD_CAT_ID":37839,"ELEMENT_SET_NO":999,"REV_AT_EPOCH":74562,"BSTAR":0.0001283494,"MEAN_MOTION_DOT":5.13e-6,"MEAN_MOTION_DDOT":0},{"OBJECT_NAME":"SRMSAT","OBJECT_ID":"2011-058D","EPOCH":"2026-03-15T05:18:26.750016","MEAN_MOTION":14.11549976,"ECCENTRICITY":0.00117181,"INCLINATION":19.9715,"RA_OF_ASC_NODE":268.2252,"ARG_OF_PERICENTER":250.188,"MEAN_ANOMALY":266.5988,"EPHEMERIS_TYPE":0,"CLASSIFICATION_TYPE":"U","NORAD_CAT_ID":37841,"ELEMENT_SET_NO":999,"REV_AT_EPOCH":74452,"BSTAR":9.9436778e-5,"MEAN_MOTION_DOT":4.48e-6,"MEAN_MOTION_DDOT":0},{"OBJECT_NAME":"SUOMI NPP","OBJECT_ID":"2011-061A","EPOCH":"2026-03-15T05:47:06.388224","MEAN_MOTION":14.19545341,"ECCENTRICITY":7.128e-5,"INCLINATION":98.7876,"RA_OF_ASC_NODE":15.7999,"ARG_OF_PERICENTER":194.178,"MEAN_ANOMALY":165.9376,"EPHEMERIS_TYPE":0,"CLASSIFICATION_TYPE":"U","NORAD_CAT_ID":37849,"ELEMENT_SET_NO":999,"REV_AT_EPOCH":74511,"BSTAR":6.9182499e-5,"MEAN_MOTION_DOT":1.02e-6,"MEAN_MOTION_DDOT":0},{"OBJECT_NAME":"YAOGAN-12","OBJECT_ID":"2011-066B","EPOCH":"2026-03-15T07:11:08.801952","MEAN_MOTION":15.25465777,"ECCENTRICITY":0.00096631,"INCLINATION":97.1282,"RA_OF_ASC_NODE":117.3042,"ARG_OF_PERICENTER":189.0213,"MEAN_ANOMALY":171.0854,"EPHEMERIS_TYPE":0,"CLASSIFICATION_TYPE":"U","NORAD_CAT_ID":37875,"ELEMENT_SET_NO":999,"REV_AT_EPOCH":79772,"BSTAR":0.00022657785,"MEAN_MOTION_DOT":5.672e-5,"MEAN_MOTION_DDOT":0},{"OBJECT_NAME":"ZIYUAN 3-01 (ZY 3-01)","OBJECT_ID":"2012-001A","EPOCH":"2026-03-15T00:58:24.458304","MEAN_MOTION":16.11873672,"ECCENTRICITY":0.00060986,"INCLINATION":97.1592,"RA_OF_ASC_NODE":149.4422,"ARG_OF_PERICENTER":248.9409,"MEAN_ANOMALY":111.1224,"EPHEMERIS_TYPE":0,"CLASSIFICATION_TYPE":"U","NORAD_CAT_ID":38046,"ELEMENT_SET_NO":999,"REV_AT_EPOCH":78956,"BSTAR":0.00099324223,"MEAN_MOTION_DOT":0.01033273,"MEAN_MOTION_DDOT":0.00066659219},{"OBJECT_NAME":"BEIDOU-2 M4","OBJECT_ID":"2012-018B","EPOCH":"2026-03-13T00:07:52.462848","MEAN_MOTION":1.86229915,"ECCENTRICITY":0.00121917,"INCLINATION":55.7402,"RA_OF_ASC_NODE":307.3399,"ARG_OF_PERICENTER":287.4004,"MEAN_ANOMALY":72.522,"EPHEMERIS_TYPE":0,"CLASSIFICATION_TYPE":"U","NORAD_CAT_ID":38251,"ELEMENT_SET_NO":999,"REV_AT_EPOCH":9415,"BSTAR":0,"MEAN_MOTION_DOT":-3.1e-7,"MEAN_MOTION_DDOT":0},{"OBJECT_NAME":"ARIRANG-3 (KOMPSAT-3)","OBJECT_ID":"2012-025B","EPOCH":"2026-03-15T06:43:10.367040","MEAN_MOTION":14.6211099,"ECCENTRICITY":0.00065628,"INCLINATION":98.1072,"RA_OF_ASC_NODE":33.4208,"ARG_OF_PERICENTER":56.7444,"MEAN_ANOMALY":303.4386,"EPHEMERIS_TYPE":0,"CLASSIFICATION_TYPE":"U","NORAD_CAT_ID":38338,"ELEMENT_SET_NO":999,"REV_AT_EPOCH":73762,"BSTAR":0.00013304779,"MEAN_MOTION_DOT":6.22e-6,"MEAN_MOTION_DDOT":0},{"OBJECT_NAME":"HORYU-2","OBJECT_ID":"2012-025D","EPOCH":"2026-03-15T06:29:43.506816","MEAN_MOTION":14.90426149,"ECCENTRICITY":0.00091772,"INCLINATION":98.2011,"RA_OF_ASC_NODE":203.4893,"ARG_OF_PERICENTER":126.9752,"MEAN_ANOMALY":233.2307,"EPHEMERIS_TYPE":0,"CLASSIFICATION_TYPE":"U","NORAD_CAT_ID":38340,"ELEMENT_SET_NO":999,"REV_AT_EPOCH":73473,"BSTAR":0.00043929663,"MEAN_MOTION_DOT":4.225e-5,"MEAN_MOTION_DDOT":0},{"OBJECT_NAME":"CSSWE","OBJECT_ID":"2012-048D","EPOCH":"2026-03-15T06:06:42.629184","MEAN_MOTION":15.39461397,"ECCENTRICITY":0.00665225,"INCLINATION":64.6623,"RA_OF_ASC_NODE":50.519,"ARG_OF_PERICENTER":201.095,"MEAN_ANOMALY":158.744,"EPHEMERIS_TYPE":0,"CLASSIFICATION_TYPE":"U","NORAD_CAT_ID":38761,"ELEMENT_SET_NO":999,"REV_AT_EPOCH":10191,"BSTAR":0.00072182668,"MEAN_MOTION_DOT":0.00030619,"MEAN_MOTION_DDOT":0},{"OBJECT_NAME":"CP5","OBJECT_ID":"2012-048F","EPOCH":"2026-03-15T06:07:38.573184","MEAN_MOTION":15.25323064,"ECCENTRICITY":0.00964565,"INCLINATION":64.6449,"RA_OF_ASC_NODE":102.4588,"ARG_OF_PERICENTER":204.549,"MEAN_ANOMALY":155.1032,"EPHEMERIS_TYPE":0,"CLASSIFICATION_TYPE":"U","NORAD_CAT_ID":38763,"ELEMENT_SET_NO":999,"REV_AT_EPOCH":10242,"BSTAR":0.00056514822,"MEAN_MOTION_DOT":0.00016164,"MEAN_MOTION_DDOT":0},{"OBJECT_NAME":"METOP-B","OBJECT_ID":"2012-049A","EPOCH":"2026-03-15T06:53:55.418208","MEAN_MOTION":14.21446634,"ECCENTRICITY":0.00013449,"INCLINATION":98.663,"RA_OF_ASC_NODE":127.61,"ARG_OF_PERICENTER":236.188,"MEAN_ANOMALY":123.917,"EPHEMERIS_TYPE":0,"CLASSIFICATION_TYPE":"U","NORAD_CAT_ID":38771,"ELEMENT_SET_NO":999,"REV_AT_EPOCH":69992,"BSTAR":7.4204623e-5,"MEAN_MOTION_DOT":1.19e-6,"MEAN_MOTION_DDOT":0},{"OBJECT_NAME":"SJ-9A","OBJECT_ID":"2012-056A","EPOCH":"2026-03-15T06:11:05.907264","MEAN_MOTION":14.85243599,"ECCENTRICITY":0.00249099,"INCLINATION":97.6619,"RA_OF_ASC_NODE":49.673,"ARG_OF_PERICENTER":203.4722,"MEAN_ANOMALY":156.5359,"EPHEMERIS_TYPE":0,"CLASSIFICATION_TYPE":"U","NORAD_CAT_ID":38860,"ELEMENT_SET_NO":999,"REV_AT_EPOCH":68564,"BSTAR":0.00016259798,"MEAN_MOTION_DOT":1.35e-5,"MEAN_MOTION_DDOT":0},{"OBJECT_NAME":"COSMOS 2484 (RODNIK-S 6)","OBJECT_ID":"2013-001C","EPOCH":"2026-03-15T06:57:55.861632","MEAN_MOTION":12.42936614,"ECCENTRICITY":0.0025639,"INCLINATION":82.4984,"RA_OF_ASC_NODE":280.2896,"ARG_OF_PERICENTER":237.9178,"MEAN_ANOMALY":121.9412,"EPHEMERIS_TYPE":0,"CLASSIFICATION_TYPE":"U","NORAD_CAT_ID":39059,"ELEMENT_SET_NO":999,"REV_AT_EPOCH":59689,"BSTAR":0.00086131492,"MEAN_MOTION_DOT":1.29e-6,"MEAN_MOTION_DDOT":0},{"OBJECT_NAME":"SARAL","OBJECT_ID":"2013-009A","EPOCH":"2026-03-15T06:10:49.125792","MEAN_MOTION":14.32830566,"ECCENTRICITY":0.00017969,"INCLINATION":98.5559,"RA_OF_ASC_NODE":262.0043,"ARG_OF_PERICENTER":165.4945,"MEAN_ANOMALY":194.6291,"EPHEMERIS_TYPE":0,"CLASSIFICATION_TYPE":"U","NORAD_CAT_ID":39086,"ELEMENT_SET_NO":999,"REV_AT_EPOCH":68215,"BSTAR":6.002735e-5,"MEAN_MOTION_DOT":1.2e-6,"MEAN_MOTION_DDOT":0}]
